{
  "norad_id": 53735,
  "name": "STARLINK-4618",
  "history": [
    {
      "epoch": "2026-03-28T11:39:42.743232",
      "apogee_km": 540.8513413586397,
      "perigee_km": 538.6708198836277,
      "latitude_deg": 44.80674666700334,
      "longitude_deg": -39.85250752000138,
      "semi_major_axis_km": 6917.898080621133,
      "eccentricity": 0.0001576,
      "inclination_deg": 53.2183,
      "raan_deg": 179.5552,
      "arg_perigee_deg": 112.7713,
      "mean_anomaly_deg": 247.3446,
      "mean_motion_rev_day": 15.08834212
    }
  ]
}