{"fetched_at":"2026-03-29T16:36:15Z","count":15609,"tles":[{"name":"STARLINK-4618","line1":"1 53735U 22107AM  26087.48591138  .00000056  00000+0  21616-4 0  9997","line2":"2 53735  53.2183 179.5552 0001576 112.7713 247.3446 15.08834212197283","category":"Starlink"}]}